STARLINK-36799          
1 67958C 26037AC  26094.39284722  .00069969  00000+0  24696-2 0   944
2 67958  43.0012  45.4671 0001404 281.9892  42.8758 15.28388387    10
STARLINK-36834          
1 67959C 26037AD  26094.45951389 -.02112100  00000+0 -65519-1 0   940
2 67959  43.0008  45.1329 0001422 264.4619  54.9008 15.33631544    10
STARLINK-36841          
1 67960C 26037AE  26094.43520833 -.02096400  00000+0 -63780-1 0   948
2 67960  43.0008  45.1991 0001135 259.0591 315.5039 15.34240779    14
STARLINK-36912          
1 67961C 26038A   26094.38243056  .00074174  00000+0  23026-2 0   943
2 67961  97.2849 105.0649 0001606  97.4271 229.5996 15.33400843    12
STARLINK-36881          
1 67962C 26038B   26094.40951389  .00007695  00000+0  23882-3 0   947
2 67962  97.2851 105.0980 0001599 110.5205  20.9288 15.33441405    15
STARLINK-36357          
1 67963C 26038C   26094.45743056 -.00024830  00000+0 -77069-3 0   941
2 67963  97.2853 105.1567 0001405  96.1855 329.6058 15.33455429    11
STARLINK-36349          
1 67964C 26038D   26094.37479167  .00143800  00000+0  44677-2 0   947
2 67964  97.2852 105.0688 0001745 102.3772 212.4606 15.33338556    18
STARLINK-36806          
1 67965C 26038E   26094.37479167  .00096784  00000+0  30049-2 0   944
2 67965  97.2851 105.0830 0001634  92.1422 252.7313 15.33384233    17
STARLINK-36820          
1 67966C 26038F   26094.36645833  .00024654  00000+0  76517-3 0   947
2 67966  97.2850 105.0812 0001480  93.7188 220.2049 15.33432513    13
STARLINK-36819          
1 67967C 26038G   26094.36784722  .00010229  00000+0  30927-3 0   947
2 67967  97.2849 105.0579 0001580  98.3899 168.7997 15.34269037    11
STARLINK-36812          
1 67968C 26038H   26094.36854167  .00025950  00000+0  80544-3 0   946
2 67968  97.2849 105.0957 0001603  89.4574 265.9591 15.33430311    13
STARLINK-36709          
1 67969C 26038J   26094.45673611 -.00014699  00000+0 -45631-3 0   948
2 67969  97.2848 105.1958 0001733  96.2794  55.6843 15.33445796    16
STARLINK-36319          
1 67970C 26038K   26094.38590278 -.00010201  00000+0 -30823-3 0   941
2 67970  97.2850 105.0970 0001627  93.6776 320.1725 15.34299159    17
STARLINK-36710          
1 67971C 26038L   26094.41437500  .00015481  00000+0  48052-3 0   940
2 67971  97.2848 105.1607 0001405  96.7052 196.5606 15.33434912    18
STARLINK-36894          
1 67972C 26038M   26094.38729167  .00034318  00000+0  10652-2 0   944
2 67972  97.2848 105.1406 0001687  97.7580  61.0924 15.33425782    19
STARLINK-36900          
1 67973C 26038N   26094.44006944  .00021627  00000+0  65399-3 0   941
2 67973  97.2846 105.1718 0001517  86.3187 318.4793 15.34258935    11
STARLINK-36901          
1 67974C 26038P   26094.35604167  .00010148  00000+0  31501-3 0   947
2 67974  97.2849 105.1160 0001618  92.2713 269.1858 15.33435041    17
STARLINK-36883          
1 67975C 26038Q   26094.35326389  .00033501  00000+0  10397-2 0   942
2 67975  97.2851 105.1448 0001602  94.4223 326.7031 15.33428580    16
STARLINK-36880          
1 67976C 26038R   26094.39006944  .00013375  00000+0  41508-3 0   945
2 67976  97.2847 105.1598 0001921  99.5947 119.5792 15.33439339    17
STARLINK-36904          
1 67977C 26038S   26094.38659722  .00024065  00000+0  74689-3 0   947
2 67977  97.2851 105.1710 0001679  95.6611 134.3619 15.33433206    14
STARLINK-36364          
1 67978C 26038T   26094.38520833  .00033979  00000+0  10546-2 0   943
2 67978  97.2851 105.1895 0001733  92.5647 174.7874 15.33427697    13
STARLINK-36359          
1 67979C 26038U   26094.37409722  .00042119  00000+0  12731-2 0   940
2 67979  97.2850 105.1480 0001751  91.5114  43.7116 15.34261805    13
STARLINK-36882          
1 67980C 26038V   26094.39770833  .00003418  00000+0  10334-3 0   945
2 67980  97.2851 105.1885 0001235 104.3178 202.4920 15.34278930    19
STARLINK-36874          
1 67981C 26038W   26094.37201389  .00033577  00000+0  10429-2 0   942
2 67981  97.2850 105.1828 0001688  92.5124 117.1016 15.33404163    13
STARLINK-36879          
1 67982C 26038X   26094.43451389 -.00059503  00000+0 -18459-2 0   947
2 67982  97.2848 105.2484 0001594  63.7003 145.6287 15.33489477    19
STARLINK-36867          
1 67983C 26038Y   26094.34770833  .00031966  00000+0  99200-3 0   941
2 67983  97.2849 105.1763 0001506  89.9194  30.5483 15.33432063    13
STARLINK-36266          
1 67984C 26038Z   26094.38659722  .00077774  00000+0  24147-2 0   943
2 67984  97.2849 105.2100 0001617 101.6430 218.3722 15.33393438    12
STARLINK-36802          
1 67985C 26038AA  26094.37340278 -.00239650  00000+0 -44216-2 0   940
2 67985  97.2844 105.9003 0001805  92.8156  13.3510 15.49269155    15
STARLINK-36535          
1 67986C 26039A   26094.40673611  .00060114  00000+0  21231-2 0   943
2 67986  43.0006 264.1853 0001567 277.2705 341.7705 15.28373006    12
STARLINK-36744          
1 67987C 26039B   26094.42131944  .00060814  00000+0  21987-2 0   949
2 67987  43.0003 263.9438 0001703 267.2976 137.1045 15.27607166    17
STARLINK-36734          
1 67988C 26039C   26094.39145833  .00054965  00000+0  19411-2 0   947
2 67988  43.0004 264.2895 0001933 276.3480 261.4366 15.28376820    14
STARLINK-36957          
1 67989C 26039D   26094.37548611  .00054416  00000+0  19681-2 0   947
2 67989  43.0010 264.1011 0002311 277.2920 277.2227 15.27596742    18
STARLINK-36951          
1 67990C 26039E   26094.43312500  .00050970  00000+0  18453-2 0   949
2 67990  43.0010 263.7301 0002621 272.3396 260.8022 15.27565891    16
STARLINK-36941          
1 67991C 26039F   26094.35743056  .00005849  00000+0  21193-3 0   946
2 67991  43.0003 264.1429 0001905 254.7364 235.7953 15.27559775    16
STARLINK-36950          
1 67992C 26039G   26094.38868056  .00066148  00000+0  23941-2 0   949
2 67992  43.0006 263.9056 0002231 250.5647  73.2330 15.27568938    19
STARLINK-36975          
1 67993C 26039H   26094.37131944  .00059642  00000+0  21604-2 0   943
2 67993  43.0007 263.9495 0001512 268.1327 341.3411 15.27545422    11
STARLINK-36993          
1 67994C 26039J   26094.38590278  .00066991  00000+0  24253-2 0   942
2 67994  43.0005 263.7982 0001632 261.4530  89.5625 15.27559478    18
STARLINK-36968          
1 67995C 26039K   26094.40326389  .00057892  00000+0  20420-2 0   948
2 67995  42.9996 263.6167 0002128 263.3866 227.1160 15.28414202    14
STARLINK-36979          
1 67996C 26039L   26094.46645833  .00044187  00000+0  16003-2 0   948
2 67996  43.0008 263.2890 0001658 273.3179 182.4261 15.27559121    19
STARLINK-36994          
1 67997C 26039M   26094.44284722  .00051582  00000+0  18671-2 0   943
2 67997  43.0003 263.1413 0001620 261.4639 184.5603 15.27572977    10
STARLINK-36988          
1 67998C 26039N   26094.41993056  .00062862  00000+0  22193-2 0   945
2 67998  43.0004 263.3411 0001444 259.0880  30.9497 15.28385019    12
STARLINK-36926          
1 67999C 26039P   26094.45743056  .00043692  00000+0  15824-2 0   946
2 67999  43.0004 263.0079 0001001 267.2736 280.2631 15.27560220    18
STARLINK-36931          
1 68000C 26039Q   26094.39631944 -.01233100  00000+0 -43937-1 0   948
2 68000  43.0004 263.3138 0001409 257.5612 326.6874 15.28728814    18
STARLINK-36903          
1 68001C 26039R   26094.34215278  .00058603  00000+0  20697-2 0   941
2 68001  43.0007 264.4765 0001700 275.2958  18.1352 15.28374285    17
STARLINK-36898          
1 68002C 26039S   26094.41576389  .00001676  00000+0  60579-4 0   946
2 68002  43.0007 263.9369 0002106 265.7830 122.2654 15.27645359    10
STARLINK-36862          
1 68003C 26039T   26094.38312500  .00056412  00000+0  19900-2 0   944
2 68003  43.0007 264.2738 0001778 255.0411 250.6249 15.28413561    11
STARLINK-36888          
1 68004C 26039U   26094.45951389  .00047533  00000+0  16823-2 0   942
2 68004  43.0007 263.8559 0001957 272.4860 289.1623 15.28309607    16
STARLINK-36910          
1 68005C 26039V   26094.36437500  .00055913  00000+0  20244-2 0   940
2 68005  43.0006 264.1732 0002074 269.7528 216.6173 15.27561578    15
STARLINK-36889          
1 68006C 26039W   26094.38520833  .00064617  00000+0  23402-2 0   945
2 68006  43.0009 263.9256 0001804 254.6951  42.9888 15.27549529    15
STARLINK-36592          
1 68007C 26039X   26094.42340278  .00054481  00000+0  19746-2 0   948
2 68007  43.0008 263.6523 0001352 262.1568 267.0026 15.27530642    15
STARLINK-36911          
1 68008C 26039Y   26094.35465278  .00053194  00000+0  19291-2 0   944
2 68008  43.0006 263.9888 0001753 276.0585 255.7684 15.27509803    18
STARLINK-36956          
1 68009C 26039Z   26094.35326389  .00053892  00000+0  19521-2 0   945
2 68009  43.0006 263.9467 0001955 272.8752 272.5883 15.27547647    12
STARLINK-36953          
1 68010C 26039AA  26094.38173611  .00063165  00000+0  22894-2 0   949
2 68010  43.0009 263.6356 0001615 255.6641 143.1686 15.27524736    18
STARLINK-36991          
1 68011C 26039AB  26094.36993056  .00065615  00000+0  23146-2 0   944
2 68011  43.0000 263.8000 0001808 255.8888  49.7580 15.28409306    17
STARLINK-36936          
1 68012C 26039AC  26094.41159722  .00060832  00000+0  22027-2 0   948
2 68012  43.0005 263.3251 0001923 256.8627  10.0544 15.27556326    11
STARLINK-36967          
1 68013C 26039AD  26094.45812500  .00047259  00000+0  17113-2 0   941
2 68013  43.0001 263.3185 0001532 254.5057 169.5103 15.27562937    18
STARLINK-36985          
1 68014C 26039AE  26094.40395833  .00055770  00000+0  20187-2 0   944
2 68014  43.0007 263.4065 0001763 273.7752 289.8488 15.27570909    14
STARLINK-36335          
1 68015C 26040A   26094.37270833 -.01965500  00000+0 -35341-1 0   946
2 68015  97.2856  43.9771 0001907 104.0566 158.3732 15.50885433    11
STARLINK-36923          
1 68016C 26040B   26094.36993056 -.01444300  00000+0 -26673-1 0   943
2 68016  97.2856  43.9684 0001879 116.8901 115.6899 15.49855867    13
